OBJECT_NAME,OBJECT_ID,EPOCH,MEAN_MOTION,ECCENTRICITY,INCLINATION,RA_OF_ASC_NODE,ARG_OF_PERICENTER,MEAN_ANOMALY,EPHEMERIS_TYPE,CLASSIFICATION_TYPE,NORAD_CAT_ID,ELEMENT_SET_NO,REV_AT_EPOCH,BSTAR,MEAN_MOTION_DOT,MEAN_MOTION_DDOT
STARLINK-32331,2024-191C,2026-07-14T06:18:14.923008,15.27591672,.00013323,43.0014,163.1926,278.2358,81.8342,0,U,61623,999,9685,.58480951E-4,.1348E-4,0
STARLINK-32398,2024-191D,2026-07-14T06:17:05.770176,15.27591773,.00013055,43.0019,159.7165,262.4888,97.5816,0,U,61624,999,9689,-.1429087E-3,-.4194E-4,0
STARLINK-32365,2024-191E,2026-07-14T07:23:28.957920,15.27570128,.00023418,43.0044,159.2033,219.2272,140.8410,0,U,61625,999,9690,.43022954E-4,.921E-5,0
STARLINK-32333,2024-191F,2026-07-14T09:43:13.084320,15.27569421,.00008928,43.0005,162.5385,284.5969,75.4784,0,U,61626,999,9687,-.5903577E-5,-.424E-5,0
STARLINK-32399,2024-191G,2026-07-14T06:53:25.937664,15.27573862,.00012623,43.0016,152.1192,264.4628,95.6080,0,U,61627,999,9698,-.15533915E-4,-.689E-5,0
STARLINK-32421,2024-191H,2026-07-14T08:00:31.419072,15.27513237,.00011916,43.0017,159.3966,251.6817,108.3905,0,U,61628,999,9690,.45572283E-3,.12274E-3,0
STARLINK-32403,2024-191J,2026-07-14T07:45:42.736320,15.27574913,.00011712,43.0023,159.3195,281.5907,78.4814,0,U,61629,999,9690,.84329499E-4,.2059E-4,0
STARLINK-32390,2024-191K,2026-07-14T06:37:27.035904,15.27570564,.00008185,43.0019,159.8268,269.8234,90.2524,0,U,61630,999,9689,-.6713109E-5,-.447E-5,0
STARLINK-32348,2024-191L,2026-07-14T09:32:07.075104,15.27568131,.0002131,43.0046,162.4801,268.8377,91.2231,0,U,61631,999,9687,-.12631744E-3,-.3736E-4,0
STARLINK-32455,2024-191M,2026-07-14T00:29:22.437312,15.27574849,.00004148,42.9989,164.8119,278.6129,81.4675,0,U,61632,999,9681,-.8969169E-5,-.508E-5,0
STARLINK-32396,2024-191N,2026-07-14T09:37:39.908640,15.27573459,.00005687,42.9987,162.5081,265.0093,95.0694,0,U,61633,999,9687,-.57026E-5,-.419E-5,0
STARLINK-32355,2024-191P,2026-07-14T06:49:42.582432,15.27569400,.00006729,43.0009,163.3560,268.4334,91.6440,0,U,61634,999,9685,-.14270034E-4,-.654E-5,0
STARLINK-32370,2024-191Q,2026-07-14T22:55:48.309600,15.27576684,.00012414,43.0017,155.4617,266.0491,94.0219,0,U,61635,999,9700,.19144099E-4,.265E-5,0
STARLINK-32405,2024-191R,2026-07-14T06:55:16.188384,15.27573400,.00009046,43.0015,163.3844,261.1676,98.9074,0,U,61636,999,9685,.72687972E-4,.1738E-4,0
STARLINK-32419,2024-191S,2026-07-14T22:13:27.633792,15.27574988,.00010346,43.0010,156.1024,274.2455,85.8279,0,U,61637,999,9699,-.19368781E-4,-.795E-5,0
STARLINK-32320,2024-191T,2026-07-14T07:00:48.214944,15.27564510,.00009534,42.9999,163.4152,259.1495,100.9250,0,U,61638,999,9685,-.15307531E-3,-.447E-4,0
STARLINK-32341,2024-191U,2026-07-14T06:20:49.240320,15.27510033,.00009855,43.0005,159.7356,320.2275,39.8505,0,U,61639,999,9689,.69712213E-3,.1893E-3,0
STARLINK-32339,2024-191V,2026-07-14T08:42:50.610528,15.27574158,.00012752,43.0021,158.7557,238.6651,121.4076,0,U,61640,999,9690,-.21831806E-4,-.863E-5,0
STARLINK-32327,2024-191W,2026-07-14T09:03:12.989952,15.27575601,.00017487,43.0117,158.8486,258.2637,101.8019,0,U,61641,999,9691,.88492613E-4,.2173E-4,0
STARLINK-32264,2024-191X,2026-07-14T06:18:01.312416,15.66308293,.002367,42.9872,140.4920,170.8597,189.2704,0,U,61642,999,9711,.51326467E-3,.55408E-3,0
STARLINK-32337,2024-191Y,2026-07-14T06:05:59.625312,15.27573705,.00008587,43.0012,159.6565,264.0092,96.0662,0,U,61643,999,9765,-.3239216E-5,-.351E-5,0
STARLINK-32238,2024-193A,2026-07-14T09:33:38.300544,15.30190327,.00011831,53.1590,222.6486,94.0032,266.1104,0,U,61661,999,9592,-.36298716E-4,-.1434E-4,0
STARLINK-32310,2024-193B,2026-07-14T07:34:12.277632,15.31696896,.00011888,53.1591,222.1357,85.9071,274.2067,0,U,61662,999,9592,-.7011101E-5,-.583E-5,0
STARLINK-32308,2024-193C,2026-07-14T22:00:03.000096,15.34368355,.00009818,53.1558,217.6126,87.7348,143.8981,0,U,61663,999,587,.14589698E-2,.49191E-3,0
STARLINK-32301,2024-193D,2026-07-14T14:11:10.421376,15.31691377,.00013178,53.1599,221.0120,64.4653,295.6484,0,U,61664,999,9596,.1206528E-4,.9E-7,0
STARLINK-32439,2024-193E,2026-07-14T08:17:48.576768,15.30192686,.00013127,53.1597,223.0279,86.3941,273.7210,0,U,61665,999,9591,.11994917E-4,-.4E-7,0
STARLINK-32428,2024-193F,2026-07-14T08:08:46.239648,15.31700577,.00012797,53.1597,222.2816,90.6170,269.4978,0,U,61666,999,9592,.22116923E-4,.321E-5,0
STARLINK-32414,2024-193G,2026-07-14T09:35:09.165696,15.30182562,.00009124,53.1592,222.6545,99.6013,260.5091,0,U,61667,999,9592,.36192639E-4,.713E-5,0
STARLINK-32441,2024-193H,2026-07-14T14:05:10.397760,15.30174323,.00012463,53.1591,221.6932,74.1339,285.9799,0,U,61668,999,9595,-.44095113E-4,-.1664E-4,0
STARLINK-32400,2024-193J,2026-07-14T14:02:07.975392,15.34385298,.00012525,53.1601,218.8421,78.4726,281.6417,0,U,61669,999,9599,.21399682E-4,.347E-5,0
