STARLINK-32331          
1 61623U 24191C   26195.26267272  .00001348  00000+0  58481-4 0  9997
2 61623  43.0014 163.1926 0001332 278.2358  81.8342 15.27591672 96853
STARLINK-32398          
1 61624U 24191D   26195.26187234 -.00004194  00000+0 -14291-3 0  9991
2 61624  43.0019 159.7165 0001305 262.4888  97.5816 15.27591773 96894
STARLINK-32365          
1 61625U 24191E   26195.30797405  .00000921  00000+0  43023-4 0  9992
2 61625  43.0044 159.2033 0002341 219.2272 140.8410 15.27570128 96905
STARLINK-32333          
1 61626U 24191F   26195.40501255 -.00000424  00000+0 -59036-5 0  9992
2 61626  43.0005 162.5385 0000892 284.5969  75.4784 15.27569421 96874
STARLINK-32399          
1 61627U 24191G   26195.28710576 -.00000689  00000+0 -15534-4 0  9994
2 61627  43.0016 152.1192 0001262 264.4628  95.6080 15.27573862 96988
STARLINK-32421          
1 61628U 24191H   26195.33369698  .00012274  00000+0  45572-3 0  9991
2 61628  43.0017 159.3966 0001191 251.6817 108.3905 15.27513237 96907
STARLINK-32403          
1 61629U 24191J   26195.32341130  .00002059  00000+0  84329-4 0  9996
2 61629  43.0023 159.3195 0001171 281.5907  78.4814 15.27574913 96903
STARLINK-32390          
1 61630U 24191K   26195.27600736 -.00000447  00000+0 -67131-5 0  9996
2 61630  43.0019 159.8268 0000818 269.8234  90.2524 15.27570564 96891
STARLINK-32348          
1 61631U 24191L   26195.39730411 -.00003736  00000+0 -12632-3 0  9992
2 61631  43.0046 162.4801 0002131 268.8377  91.2231 15.27568131 96873
STARLINK-32455          
1 61632U 24191M   26195.02039858 -.00000508  00000+0 -89692-5 0  9996
2 61632  42.9989 164.8119 0000414 278.6129  81.4675 15.27574849 96812
STARLINK-32396          
1 61633U 24191N   26195.40115635 -.00000419  00000+0 -57026-5 0  9994
2 61633  42.9987 162.5081 0000568 265.0093  95.0694 15.27573459 96878
STARLINK-32355          
1 61634U 24191P   26195.28452063 -.00000654  00000+0 -14270-4 0  9994
2 61634  43.0009 163.3560 0000672 268.4334  91.6440 15.27569400 96858
STARLINK-32370          
1 61635U 24191Q   26195.95542025  .00000265  00000+0  19144-4 0  9998
2 61635  43.0017 155.4617 0001241 266.0491  94.0219 15.27576684 97005
STARLINK-32405          
1 61636U 24191R   26195.28838181  .00001738  00000+0  72688-4 0  9994
2 61636  43.0015 163.3844 0000904 261.1676  98.9074 15.27573400 96857
STARLINK-32419          
1 61637U 24191S   26195.92601428 -.00000795  00000+0 -19369-4 0  9999
2 61637  43.0010 156.1024 0001034 274.2455  85.8279 15.27574988 96997
STARLINK-32320          
1 61638U 24191T   26195.29222471 -.00004470  00000+0 -15308-3 0  9999
2 61638  42.9999 163.4152 0000953 259.1495 100.9250 15.27564510 96853
STARLINK-32341          
1 61639U 24191U   26195.26445880  .00018930  00000+0  69712-3 0  9990
2 61639  43.0005 159.7356 0000985 320.2275  39.8505 15.27510033 96897
STARLINK-32339          
1 61640U 24191V   26195.36308577 -.00000863  00000+0 -21832-4 0  9994
2 61640  43.0021 158.7557 0001275 238.6651 121.4076 15.27574158 96903
STARLINK-32327          
1 61641U 24191W   26195.37723368  .00002173  00000+0  88493-4 0  9995
2 61641  43.0117 158.8486 0001748 258.2637 101.8019 15.27575601 96913
STARLINK-32264          
1 61642U 24191X   26195.26251519  .00055408  00000+0  51326-3 0  9991
2 61642  42.9872 140.4920 0023670 170.8597 189.2704 15.66308293 97110
STARLINK-32337          
1 61643U 24191Y   26195.25416233 -.00000351  00000+0 -32392-5 0  9990
2 61643  43.0012 159.6565 0000858 264.0092  96.0662 15.27573705 97651
STARLINK-32238          
1 61661U 24193A   26195.39835996 -.00001434  00000+0 -36299-4 0  9990
2 61661  53.1590 222.6486 0001183  94.0032 266.1104 15.30190327 95922
STARLINK-32310          
1 61662U 24193B   26195.31541988 -.00000583  00000+0 -70111-5 0  9994
2 61662  53.1591 222.1357 0001188  85.9071 274.2067 15.31696896 95924
STARLINK-32308          
1 61663U 24193C   26195.91670139  .00049191  00000+0  14590-2 0  9994
2 61663  53.1558 217.6126 0000981  87.7348 143.8981 15.34368355  5878
STARLINK-32301          
1 61664U 24193D   26195.59109284  .00000009  00000+0  12065-4 0  9999
2 61664  53.1599 221.0120 0001317  64.4653 295.6484 15.31691377 95965
STARLINK-32439          
1 61665U 24193E   26195.34570112 -.00000004  00000+0  11995-4 0  9992
2 61665  53.1597 223.0279 0001312  86.3941 273.7210 15.30192686 95916
STARLINK-32428          
1 61666U 24193F   26195.33942407  .00000321  00000+0  22117-4 0  9991
2 61666  53.1597 222.2816 0001279  90.6170 269.4978 15.31700577 95928
STARLINK-32414          
1 61667U 24193G   26195.39941164  .00000713  00000+0  36193-4 0  9991
2 61667  53.1592 222.6545 0000912  99.6013 260.5091 15.30182562 95920
STARLINK-32441          
1 61668U 24193H   26195.58692590 -.00001664  00000+0 -44095-4 0  9997
2 61668  53.1591 221.6932 0001246  74.1339 285.9799 15.30174323 95954
STARLINK-32400          
1 61669U 24193J   26195.58481453  .00000347  00000+0  21400-4 0  9992
2 61669  53.1601 218.8421 0001252  78.4726 281.6417 15.34385298 95995
